<?xml version="1.0" encoding="UTF-8"?><osm version="0.6" generator="Overpass API 0.7.59 e21c39fe">
<note>The data included in this document is from www.openstreetmap.org. The data is made available under ODbL.</note>
<meta osm_base="2022-11-08T18:52:09Z"/>

  <node id="371129575" lat="41.9936657" lon="21.4428736">
    <tag k="amenity" v="bank"/>
    <tag k="name" v="НБРМ"/>
    <tag k="operator" v="Народна банка на Македонија (НРБМ)"/>
    <tag k="wikidata" v="Q2598067"/>
  </node>
  <node id="416030019" lat="41.9881468" lon="21.4552843">
    <tag k="amenity" v="bank"/>
    <tag k="int_name" v="Stopanska Banka"/>
    <tag k="name" v="Стопанска Банка"/>
    <tag k="name:en" v="Stopanska Banka"/>
    <tag k="operator" v="Стопанска Банка АД - Скопје"/>
  </node>
  <node id="416030021" lat="41.9881141" lon="21.4550700">
    <tag k="addr:housenumber" v="12"/>
    <tag k="addr:street" v="Булевар Јане Сандански"/>
    <tag k="amenity" v="bank"/>
    <tag k="name" v="Охридска Банка"/>
  </node>
  <node id="459670407" lat="41.9947783" lon="21.4335756">
    <tag k="amenity" v="bank"/>
    <tag k="operator" v="Уни Банка"/>
  </node>
  <node id="459670746" lat="41.9957098" lon="21.4332758">
    <tag k="amenity" v="bank"/>
    <tag k="int_name" v="Stopanska Banka"/>
    <tag k="name" v="Стопанска банка"/>
    <tag k="name:en" v="Stopanska Banka"/>
    <tag k="operator" v="Стопанска Банка АД - Скопје"/>
  </node>
  <node id="547985718" lat="41.9860412" lon="21.4428016">
    <tag k="addr:housenumber" v="20"/>
    <tag k="addr:street" v="3та Македонска Бригада бр.1"/>
    <tag k="amenity" v="bank"/>
    <tag k="name" v="Тутунска Банка"/>
    <tag k="operator" v="Тутунска Банка"/>
  </node>
  <node id="552769113" lat="42.0311804" lon="21.4447847">
    <tag k="amenity" v="bank"/>
    <tag k="name" v="Халкбанк"/>
  </node>
  <node id="1307183572" lat="42.0050280" lon="21.3833142">
    <tag k="amenity" v="bank"/>
    <tag k="atm" v="yes"/>
    <tag k="name" v="Тутунска Банка Карпош 4"/>
    <tag k="operator" v="НЛБ - Тутунска Банка"/>
  </node>
  <node id="1475404508" lat="42.0073792" lon="21.3682515">
    <tag k="amenity" v="bank"/>
    <tag k="atm" v="yes"/>
    <tag k="name" v="Stopanska banka"/>
  </node>
  <node id="1475404523" lat="42.0063452" lon="21.3681939">
    <tag k="amenity" v="bank"/>
    <tag k="atm" v="yes"/>
    <tag k="name" v="Тутунска банка"/>
  </node>
  <node id="1475404526" lat="42.0075172" lon="21.3683899">
    <tag k="amenity" v="bank"/>
    <tag k="atm" v="yes"/>
    <tag k="name" v="Komercijalna banka"/>
  </node>
  <node id="1475404533" lat="42.0069351" lon="21.3650349">
    <tag k="amenity" v="bank"/>
    <tag k="atm" v="yes"/>
    <tag k="name" v="Komercijalna banka"/>
  </node>
  <node id="1615760049" lat="42.0036469" lon="21.3970663">
    <tag k="amenity" v="bank"/>
    <tag k="name" v="НЛБ Тутунска Банка"/>
    <tag k="name:en" v="NLB Tutunska Banka"/>
  </node>
  <node id="1618605216" lat="41.9916695" lon="21.4244409">
    <tag k="addr:street" v="Железничка"/>
    <tag k="amenity" v="bank"/>
    <tag k="brand" v="Halkbank"/>
    <tag k="name" v="Зират Банка"/>
    <tag k="name:en" v="Zirat Bank"/>
  </node>
  <node id="1747986348" lat="41.9876902" lon="21.4327574">
    <tag k="amenity" v="bank"/>
    <tag k="operator" v="Стопанска Банка"/>
  </node>
  <node id="1851476148" lat="41.9941727" lon="21.4425119">
    <tag k="amenity" v="bank"/>
    <tag k="name" v="Централен Регистер на РМ"/>
  </node>
  <node id="1860283429" lat="42.0029983" lon="21.4641508">
    <tag k="amenity" v="bank"/>
    <tag k="atm" v="yes"/>
    <tag k="int_name" v="Stopanska Banka"/>
    <tag k="name" v="Стопанска банка"/>
    <tag k="name:en" v="Stopanska banka"/>
    <tag k="operator" v="Стопанска банка АД - Скопје"/>
  </node>
  <node id="2276499906" lat="41.9947725" lon="21.4100251">
    <tag k="amenity" v="bank"/>
    <tag k="atm" v="yes"/>
    <tag k="int_name" v="Komercijalna Banka"/>
    <tag k="name" v="Комерцијална Банка"/>
    <tag k="name:en" v="Komercijalna Banka"/>
    <tag k="operator" v="Комерцијална Банка АД Скопје"/>
  </node>
  <node id="2335276894" lat="42.0064278" lon="21.3576640">
    <tag k="addr:postcode" v="1000"/>
    <tag k="amenity" v="bank"/>
    <tag k="int_name" v="Šparkase"/>
    <tag k="name" v="Шпаркасе"/>
    <tag k="name:en" v="Sparkasse"/>
    <tag k="name:mk" v="Шпаркасе Банка-Ѓорче Петров"/>
    <tag k="opening_hours" v="Mo-Fr 08:30-16:30"/>
    <tag k="phone" v="+389 2 2050514"/>
    <tag k="website" v="https://sparkasse.mk"/>
  </node>
  <node id="2335276905" lat="42.0065755" lon="21.3596919">
    <tag k="addr:housenumber" v="1"/>
    <tag k="addr:postcode" v="1000"/>
    <tag k="addr:street" v="Мице Козар"/>
    <tag k="amenity" v="bank"/>
    <tag k="name" v="Sparkasse"/>
    <tag k="opening_hours" v="Mo-Fr 08:30-16:30"/>
    <tag k="phone" v="+389 02 2050260"/>
    <tag k="website" v="http://www.ob.com.mk"/>
  </node>
  <node id="2335304828" lat="41.9818419" lon="21.4400132">
    <tag k="addr:city" v="Cкoпje"/>
    <tag k="addr:city:en" v="Skopje"/>
    <tag k="addr:country" v="MK"/>
    <tag k="addr:postcode" v="1000"/>
    <tag k="amenity" v="bank"/>
    <tag k="atm" v="yes"/>
    <tag k="int_name" v="Šparkase"/>
    <tag k="name" v="Шпаркасе"/>
    <tag k="name:en" v="Sparkasse"/>
    <tag k="operator" v="Шпаркасе Банка Македонија АД Скопје"/>
  </node>
  <node id="2335304834" lat="42.0136832" lon="21.4452794">
    <tag k="addr:city" v="Cкoпje"/>
    <tag k="addr:city:en" v="Skopje"/>
    <tag k="addr:country" v="MK"/>
    <tag k="addr:postcode" v="1000"/>
    <tag k="addr:street" v="Булевар Цветан Димов"/>
    <tag k="amenity" v="bank"/>
    <tag k="int_name" v="Šparkase"/>
    <tag k="name" v="Шпаркасе"/>
    <tag k="name:en" v="Sparkasse"/>
    <tag k="operator" v="Шпаркасе Банка Македонија АД Скопје"/>
  </node>
  <node id="2365723919" lat="41.9967666" lon="21.4998637">
    <tag k="amenity" v="bank"/>
    <tag k="name" v="Комерцијална Банка"/>
  </node>
  <node id="2882119234" lat="41.9804570" lon="21.4723253">
    <tag k="amenity" v="bank"/>
    <tag k="name" v="Комерцијална Банка"/>
  </node>
  <node id="2884502160" lat="41.9810724" lon="21.4752946">
    <tag k="amenity" v="bank"/>
    <tag k="name" v="Стопанска Банка"/>
  </node>
  <node id="2884502162" lat="41.9828430" lon="21.4724684">
    <tag k="amenity" v="bank"/>
    <tag k="name" v="Централна Кооперативна Банка"/>
  </node>
  <node id="2884502163" lat="41.9741156" lon="21.4724627">
    <tag k="amenity" v="bank"/>
    <tag k="name" v="Комерцијална Банка"/>
  </node>
  <node id="2884502164" lat="41.9847822" lon="21.4681788">
    <tag k="amenity" v="bank"/>
    <tag k="name" v="Прокредит Банка"/>
  </node>
  <node id="2884502165" lat="41.9862724" lon="21.4637512">
    <tag k="amenity" v="bank"/>
    <tag k="name" v="ТТК Банка"/>
  </node>
  <node id="2884502166" lat="41.9867167" lon="21.4629871">
    <tag k="amenity" v="bank"/>
    <tag k="name" v="Стопанска Банка"/>
  </node>
  <node id="2884502167" lat="41.9894468" lon="21.4600367">
    <tag k="amenity" v="bank"/>
    <tag k="atm" v="yes"/>
    <tag k="name" v="NLB Тутунска Банка"/>
  </node>
  <node id="2884502183" lat="41.9892067" lon="21.4502163">
    <tag k="amenity" v="bank"/>
    <tag k="atm" v="yes"/>
    <tag k="name" v="Komercijalna Banka"/>
  </node>
  <node id="2886274890" lat="41.9846465" lon="21.4390666">
    <tag k="amenity" v="bank"/>
    <tag k="atm" v="yes"/>
    <tag k="name" v="NLB Тутунска Банка"/>
  </node>
  <node id="2887575838" lat="41.9870236" lon="21.4624841">
    <tag k="amenity" v="bank"/>
    <tag k="name" v="Охридска Банка"/>
  </node>
  <node id="3026549094" lat="42.0028422" lon="21.4011278">
    <tag k="amenity" v="bank"/>
    <tag k="atm" v="yes"/>
    <tag k="int_name" v="Komercijalna Banka"/>
    <tag k="name" v="Комерцијална Банка"/>
    <tag k="name:en" v="Komercijalna Banka"/>
    <tag k="operator" v="Комерцијална Банка АД Скопје"/>
  </node>
  <node id="3101725381" lat="41.9940162" lon="21.4423152">
    <tag k="amenity" v="bank"/>
    <tag k="name" v="Stopanska Banka"/>
  </node>
  <node id="3341289787" lat="41.9928192" lon="21.4299102">
    <tag k="addr:city" v="Скопје"/>
    <tag k="addr:postcode" v="1000"/>
    <tag k="addr:street" v="Македонија"/>
    <tag k="amenity" v="bank"/>
    <tag k="atm" v="yes"/>
    <tag k="int_name" v="Komercijalna Banka"/>
    <tag k="name" v="Комерцијална Банка"/>
    <tag k="name:en" v="Komercijalna Bank"/>
  </node>
  <node id="3787600182" lat="41.9809376" lon="21.4405306">
    <tag k="amenity" v="bank"/>
    <tag k="name" v="Стопанска Банка"/>
  </node>
  <node id="4012028345" lat="41.9988690" lon="21.4205887">
    <tag k="amenity" v="bank"/>
    <tag k="atm" v="yes"/>
    <tag k="int_name" v="Stopanska Banka"/>
    <tag k="name" v="Стопанска Банка"/>
    <tag k="name:en" v="Stopanska Banka"/>
    <tag k="operator" v="Стопанска Банка АД - Скопје"/>
  </node>
  <node id="4012028346" lat="41.9987428" lon="21.4214196">
    <tag k="amenity" v="bank"/>
    <tag k="atm" v="yes"/>
    <tag k="name" v="Комерцијална Банка"/>
    <tag k="name:en" v="Komercijalna Bank"/>
    <tag k="opening_hours" v="Mo-Fr 07:30-18:00; Sa 08:00-13:00"/>
    <tag k="operator" v="Комерцијална Банка АД Скопје"/>
  </node>
  <node id="4059895435" lat="41.9937486" lon="21.4177179">
    <tag k="amenity" v="bank"/>
    <tag k="name" v="Шпаркасе Банка"/>
  </node>
  <node id="4059895436" lat="41.9938028" lon="21.4172424">
    <tag k="amenity" v="bank"/>
    <tag k="name" v="Охридска Банка"/>
  </node>
  <node id="4144098451" lat="42.0046642" lon="21.3909854">
    <tag k="amenity" v="bank"/>
    <tag k="atm" v="yes"/>
    <tag k="int_name" v="Komercijalna Banka"/>
    <tag k="level" v="0"/>
    <tag k="name" v="Комерцијална Банка"/>
    <tag k="name:en" v="Komercijalna Banka"/>
    <tag k="operator" v="Комерцијална Банка АД Скопје"/>
    <tag k="wheelchair" v="yes"/>
  </node>
  <node id="4266034097" lat="41.9846955" lon="21.4387451">
    <tag k="amenity" v="bank"/>
    <tag k="name" v="Комерцијална Банка"/>
  </node>
  <node id="4448978289" lat="41.9833896" lon="21.4392671">
    <tag k="amenity" v="bank"/>
    <tag k="name" v="Уни Банка - Кисела Вода"/>
    <tag k="name:mk" v="Уни Банка - Кисела Вода"/>
  </node>
  <node id="4459578970" lat="41.9952945" lon="21.4345705">
    <tag k="addr:city" v="Cкoпje"/>
    <tag k="addr:city:en" v="Skopje"/>
    <tag k="addr:country" v="MK"/>
    <tag k="addr:housenumber" v="28"/>
    <tag k="addr:postcode" v="1000"/>
    <tag k="addr:street" v="Кеј 13 Ноември"/>
    <tag k="addr:street:en" v="Kay 13th November"/>
    <tag k="amenity" v="bank"/>
    <tag k="atm" v="yes"/>
    <tag k="int_name" v="NLB Tutunska banka"/>
    <tag k="name" v="НЛБ Тутунска банка"/>
  </node>
  <node id="4502199191" lat="41.9952676" lon="21.4296796">
    <tag k="amenity" v="bank"/>
    <tag k="name" v="ПроКредит"/>
    <tag k="name:mk" v="procredit"/>
  </node>
  <node id="4573205007" lat="42.0034052" lon="21.3964504">
    <tag k="amenity" v="bank"/>
    <tag k="atm" v="yes"/>
    <tag k="level" v="0"/>
    <tag k="name" v="Halkbank"/>
  </node>
  <node id="4573205016" lat="42.0033742" lon="21.3966968">
    <tag k="amenity" v="bank"/>
    <tag k="atm" v="yes"/>
    <tag k="level" v="0"/>
    <tag k="name" v="Шпаркасе"/>
    <tag k="name:en" v="Sparkasse"/>
  </node>
  <node id="4594432367" lat="41.9955887" lon="21.4336687">
    <tag k="amenity" v="bank"/>
    <tag k="int_name" v="Stopanska Banka"/>
    <tag k="name" v="Стопанска банка"/>
    <tag k="name:en" v="Stopanska Banka"/>
    <tag k="operator" v="Стопанска Банка АД - Скопје"/>
  </node>
  <node id="4740732822" lat="42.0024666" lon="21.3975443">
    <tag k="amenity" v="bank"/>
    <tag k="name" v="Sparkasse"/>
    <tag k="name:en" v="Ohridska Banka"/>
    <tag k="name:mk" v="Охридска Банка"/>
  </node>
  <node id="4742916122" lat="41.9936320" lon="21.4109915">
    <tag k="addr:housenumber" v="1"/>
    <tag k="addr:street" v="Франклин Рузвелт"/>
    <tag k="amenity" v="bank"/>
    <tag k="email" v="tb.kapistec@nlb.mk"/>
    <tag k="name" v="НЛБ Тутунска Банка"/>
    <tag k="opening_hours" v="Mo-Su 08:00-17:00"/>
    <tag k="phone" v="+38923089090"/>
    <tag k="website" v="http://www.nlb.mk"/>
  </node>
  <node id="5054709626" lat="42.0035989" lon="21.5041694">
    <tag k="amenity" v="bank"/>
    <tag k="atm" v="yes"/>
    <tag k="drive_through" v="no"/>
    <tag k="name" v="НЛБ Тутунска Банка"/>
    <tag k="website" v="http://www.nlbtb.com.mk/"/>
  </node>
  <node id="5131823434" lat="41.9948876" lon="21.4276102">
    <tag k="amenity" v="bank"/>
    <tag k="name" v="TTK"/>
  </node>
  <node id="5333318375" lat="42.0029303" lon="21.4004646">
    <tag k="amenity" v="bank"/>
    <tag k="name" v="УНИБанка"/>
    <tag k="name:en" v="UNIBank"/>
    <tag k="website" v="http://www.unibank.com.mk/"/>
  </node>
  <node id="5333318378" lat="42.0028742" lon="21.4008798">
    <tag k="amenity" v="bank"/>
    <tag k="name" v="TTK Bank"/>
  </node>
  <node id="5731830652" lat="41.9934567" lon="21.4326259">
    <tag k="amenity" v="bank"/>
    <tag k="name" v="Halkbank"/>
  </node>
  <node id="6054036209" lat="41.9963482" lon="21.4276726">
    <tag k="amenity" v="bank"/>
    <tag k="atm" v="yes"/>
    <tag k="drive_through" v="no"/>
    <tag k="name" v="НЛБ Банка"/>
    <tag k="name:en" v="NLB Bank"/>
    <tag k="opening_hours" v="Mo-Fr 08:00-17:00; Sa 09:00-13:00"/>
    <tag k="operator" v="НЛБ Банка АД Скопје"/>
    <tag k="website" v="https://nlb.mk/"/>
  </node>
  <node id="6054037094" lat="41.9937523" lon="21.4275923">
    <tag k="amenity" v="bank"/>
    <tag k="name" v="Sparkasse"/>
  </node>
  <node id="6054048502" lat="42.0067272" lon="21.3569970">
    <tag k="amenity" v="bank"/>
    <tag k="name" v="Стопанска Банка"/>
  </node>
  <node id="6054048711" lat="42.0069917" lon="21.3658492">
    <tag k="amenity" v="bank"/>
    <tag k="atm" v="yes"/>
    <tag k="name" v="Komercijalna Banka"/>
  </node>
  <node id="6054048715" lat="41.9984708" lon="21.4225838">
    <tag k="amenity" v="bank"/>
    <tag k="name" v="Silk road"/>
  </node>
  <node id="6054048723" lat="41.9993025" lon="21.4184814">
    <tag k="amenity" v="bank"/>
    <tag k="atm" v="yes"/>
    <tag k="name" v="Sparkasse"/>
  </node>
  <node id="6054049799" lat="42.0080679" lon="21.3687237">
    <tag k="amenity" v="bank"/>
    <tag k="atm" v="yes"/>
    <tag k="name" v="Silkroad Bank"/>
  </node>
  <node id="6054050096" lat="41.9991977" lon="21.4189624">
    <tag k="amenity" v="bank"/>
    <tag k="name" v="Halbank"/>
  </node>
  <node id="6137491236" lat="41.9876789" lon="21.4327865">
    <tag k="amenity" v="bank"/>
    <tag k="name" v="Стопанска Банка"/>
  </node>
  <node id="6275107313" lat="41.9991750" lon="21.4391635">
    <tag k="addr:street" v="Булевар Гоце Делчев"/>
    <tag k="amenity" v="bank"/>
    <tag k="name" v="Western Union"/>
  </node>
  <node id="6277304326" lat="42.0142495" lon="21.4457121">
    <tag k="addr:street" v="Булевар Христијан Тодоровски Карпош"/>
    <tag k="amenity" v="bank"/>
    <tag k="atm" v="yes"/>
    <tag k="name" v="Halkbank"/>
  </node>
  <node id="6279058422" lat="42.0304003" lon="21.4447546">
    <tag k="amenity" v="bank"/>
    <tag k="atm" v="yes"/>
    <tag k="name" v="НЛБ Тутунска Банка"/>
  </node>
  <node id="6279225885" lat="42.0065882" lon="21.3590935">
    <tag k="addr:housenumber" v="27"/>
    <tag k="addr:street" v="Булевар Ѓорче Петров"/>
    <tag k="amenity" v="bank"/>
    <tag k="name" v="Halkbank"/>
  </node>
  <node id="6281492651" lat="42.0022117" lon="21.4401439">
    <tag k="addr:street" v="Булевар Крсте Мисирков"/>
    <tag k="amenity" v="bank"/>
    <tag k="name" v="Стопанска Банка"/>
  </node>
  <node id="6281672845" lat="42.0037315" lon="21.3318349">
    <tag k="amenity" v="bank"/>
    <tag k="name" v="NLB Banka"/>
  </node>
  <node id="6281993277" lat="42.0134893" lon="21.4426424">
    <tag k="addr:street" v="Џон Кенеди"/>
    <tag k="amenity" v="bank"/>
    <tag k="name" v="Охридска Банка"/>
  </node>
  <node id="6287292136" lat="41.9837535" lon="21.4701282">
    <tag k="addr:street" v="Булевар Јане Сандански"/>
    <tag k="amenity" v="bank"/>
    <tag k="atm" v="yes"/>
    <tag k="name" v="Шпаркасе"/>
    <tag k="name:en" v="Sparkasse"/>
  </node>
  <node id="6812641691" lat="41.9995612" lon="21.4260008">
    <tag k="amenity" v="bank"/>
    <tag k="name" v="NLB"/>
  </node>
  <node id="6814246720" lat="41.9994143" lon="21.4373437">
    <tag k="amenity" v="bank"/>
    <tag k="name" v="NLB"/>
  </node>
  <node id="6814246721" lat="41.9994185" lon="21.4374802">
    <tag k="amenity" v="bank"/>
    <tag k="name" v="Halk"/>
  </node>
  <node id="6815559785" lat="41.9995003" lon="21.4175894">
    <tag k="amenity" v="bank"/>
    <tag k="name" v="NLB"/>
  </node>
  <node id="6815931290" lat="41.9951941" lon="21.4330782">
    <tag k="amenity" v="bank"/>
    <tag k="name" v="Стопанска банка"/>
  </node>
  <node id="6821158391" lat="41.9927810" lon="21.4254378">
    <tag k="amenity" v="bank"/>
    <tag k="name" v="NLB"/>
  </node>
  <node id="6821158785" lat="41.9940018" lon="21.4310477">
    <tag k="amenity" v="bank"/>
    <tag k="name" v="Komerz"/>
  </node>
  <node id="6913357685" lat="42.0246980" lon="21.4294687">
    <tag k="amenity" v="bank"/>
    <tag k="name" v="Hallbank"/>
  </node>
  <node id="6968735785" lat="41.9754854" lon="21.4386821">
    <tag k="amenity" v="bank"/>
    <tag k="name:en" v="Unibank ATM"/>
  </node>
  <node id="7133065641" lat="42.0067620" lon="21.3575237">
    <tag k="amenity" v="bank"/>
    <tag k="name" v="Уни Банка"/>
  </node>
  <node id="7136180068" lat="41.9838482" lon="21.4699551">
    <tag k="amenity" v="bank"/>
    <tag k="name" v="Охридска Банка"/>
  </node>
  <node id="7136914207" lat="42.0026806" lon="21.4616919">
    <tag k="amenity" v="bank"/>
    <tag k="name" v="Силк Роуд Банка"/>
    <tag k="name:en" v="Silk Road Bank"/>
  </node>
  <node id="7876582715" lat="41.9839565" lon="21.4390846">
    <tag k="amenity" v="bank"/>
    <tag k="name" v="Silk Road"/>
  </node>
  <node id="9200216063" lat="41.9903066" lon="21.4317942">
    <tag k="amenity" v="bank"/>
    <tag k="name" v="Komerz"/>
  </node>
  <node id="9200216159" lat="41.9984702" lon="21.4250567">
    <tag k="amenity" v="bank"/>
    <tag k="name" v="Iute credit"/>
  </node>
  <node id="9200216160" lat="41.9978983" lon="21.4293563">
    <tag k="amenity" v="bank"/>
    <tag k="name" v="Sparkasse"/>
  </node>
  <node id="9200216441" lat="41.9903752" lon="21.4316452">
    <tag k="amenity" v="bank"/>
    <tag k="name" v="Sto"/>
  </node>
  <node id="9200216722" lat="41.9899741" lon="21.4352972">
    <tag k="amenity" v="bank"/>
    <tag k="name" v="Sparkasse"/>
  </node>
  <node id="9233459229" lat="42.0064539" lon="21.5024680">
    <tag k="amenity" v="bank"/>
    <tag k="atm" v="yes"/>
    <tag k="drive_through" v="no"/>
    <tag k="name" v="Стопанска Банка"/>
    <tag k="name:en" v="Stopanska Banka - STB"/>
  </node>
  <node id="9249325904" lat="41.9866482" lon="21.4633100">
    <tag k="amenity" v="bank"/>
    <tag k="name" v="НЛБ Тутунска Банка"/>
  </node>
  <node id="9249326272" lat="41.9866114" lon="21.4633707">
    <tag k="amenity" v="bank"/>
    <tag k="name" v="Комерцијална Банка"/>
  </node>
  <node id="9959079921" lat="42.0001440" lon="21.4593070">
    <tag k="amenity" v="bank"/>
    <tag k="atm" v="yes"/>
    <tag k="name" v="Шпаркасе Банка"/>
    <tag k="operator" v="Шпаркасе Банка"/>
  </node>
  <node id="10074558295" lat="41.9811471" lon="21.4144902">
    <tag k="addr:city" v="Cкoпje"/>
    <tag k="addr:housenumber" v="12"/>
    <tag k="addr:street" v="Македонская улица"/>
    <tag k="amenity" v="bank"/>
    <tag k="name" v="ВТБ"/>
  </node>

</osm>